[
    {
        "Altitude(m)": 622200.0842199659,
        "Argument of Periapsis(deg)": 0.0,
        "Eccentricity": 0.0,
        "Inclination(deg)": 60.0,
        "Latitude(deg)": -52.16247480020867,
        "Longitude(deg)": 137.3606704327835,
        "Mean Anomaly(deg)": -65.45450000000002,
        "RAAN(deg)": 285.0,
        "Satellite Name": "Test1 1272",
        "Satellite Number": 1272,
        "Semi-Major Axis(m)": 6980739.136638005,
        "Time(s)": 0
    },
    {
        "Altitude(m)": 622058.2522116469,
        "Argument of Periapsis(deg)": 0.00010418945913296404,
        "Eccentricity": 0.0,
        "Inclination(deg)": 60.0,
        "Latitude(deg)": -51.79922531316381,
        "Longitude(deg)": 138.128728314039,
        "Mean Anomaly(deg)": -64.83439385453818,
        "RAAN(deg)": 284.9995799508602,
        "Satellite Name": "Test1 1272",
        "Satellite Number": 1272,
        "Semi-Major Axis(m)": 6980739.136638005,
        "Time(s)": 10
    }
]